{"fetched_at":"2026-07-18T17:29:29.751Z","source":"https://celestrak.org/NORAD/elements/gp.php?GROUP=kuiper&FORMAT=JSON","constellation":"kuiper","records":[{"OBJECT_NAME":"KUIPER-00357","OBJECT_ID":"2026-095C","EPOCH":"2026-07-17T22:24:01.082304","CLASSIFICATION_TYPE":"U","MEAN_MOTION":14.79938509,"ECCENTRICITY":0.00012131,"INCLINATION":51.9019,"RA_OF_ASC_NODE":107.2009,"ARG_OF_PERICENTER":89.3141,"MEAN_ANOMALY":270.7961,"EPHEMERIS_TYPE":0,"NORAD_CAT_ID":68866,"ELEMENT_SET_NO":999,"REV_AT_EPOCH":1227,"BSTAR":0.00024033449,"MEAN_MOTION_DOT":0.00001612,"MEAN_MOTION_DDOT":0},{"OBJECT_NAME":"KUIPER-00364","OBJECT_ID":"2026-095D","EPOCH":"2026-07-18T04:00:32.103936","CLASSIFICATION_TYPE":"U","MEAN_MOTION":14.79921303,"ECCENTRICITY":0.00011977,"INCLINATION":51.9046,"RA_OF_ASC_NODE":108.6768,"ARG_OF_PERICENTER":159.5264,"MEAN_ANOMALY":200.5747,"EPHEMERIS_TYPE":0,"NORAD_CAT_ID":68867,"ELEMENT_SET_NO":999,"REV_AT_EPOCH":1227,"BSTAR":0.00024852014,"MEAN_MOTION_DOT":0.00001673,"MEAN_MOTION_DDOT":0},{"OBJECT_NAME":"KUIPER-00375","OBJECT_ID":"2026-095E","EPOCH":"2026-07-18T06:00:02.000160","CLASSIFICATION_TYPE":"U","MEAN_MOTION":14.76392797,"ECCENTRICITY":0.00033108,"INCLINATION":51.9002,"RA_OF_ASC_NODE":100.2228,"ARG_OF_PERICENTER":102.6352,"MEAN_ANOMALY":56.439,"EPHEMERIS_TYPE":0,"NORAD_CAT_ID":68868,"ELEMENT_SET_NO":999,"REV_AT_EPOCH":569,"BSTAR":0.0022023254,"MEAN_MOTION_DOT":0.00015264,"MEAN_MOTION_DDOT":0},{"OBJECT_NAME":"KUIPER-00433","OBJECT_ID":"2026-095F","EPOCH":"2026-07-18T01:23:20.864832","CLASSIFICATION_TYPE":"U","MEAN_MOTION":14.79968474,"ECCENTRICITY":0.00011796,"INCLINATION":51.9009,"RA_OF_ASC_NODE":116.6488,"ARG_OF_PERICENTER":88.0505,"MEAN_ANOMALY":272.0592,"EPHEMERIS_TYPE":0,"NORAD_CAT_ID":68869,"ELEMENT_SET_NO":999,"REV_AT_EPOCH":1215,"BSTAR":0.00024747249,"MEAN_MOTION_DOT":0.00001667,"MEAN_MOTION_DDOT":0},{"OBJECT_NAME":"KUIPER-00437","OBJECT_ID":"2026-095G","EPOCH":"2026-07-18T01:56:38.994432","CLASSIFICATION_TYPE":"U","MEAN_MOTION":15.38597102,"ECCENTRICITY":0.00080736,"INCLINATION":51.8792,"RA_OF_ASC_NODE":92.88,"ARG_OF_PERICENTER":60.502,"MEAN_ANOMALY":299.6772,"EPHEMERIS_TYPE":0,"NORAD_CAT_ID":68870,"ELEMENT_SET_NO":999,"REV_AT_EPOCH":1248,"BSTAR":0.00024427136,"MEAN_MOTION_DOT":0.00009078,"MEAN_MOTION_DDOT":0},{"OBJECT_NAME":"KUIPER-00448","OBJECT_ID":"2026-095H","EPOCH":"2026-07-18T03:28:59.271744","CLASSIFICATION_TYPE":"U","MEAN_MOTION":14.7643205,"ECCENTRICITY":0.00013818,"INCLINATION":51.9042,"RA_OF_ASC_NODE":104.6055,"ARG_OF_PERICENTER":172.3817,"MEAN_ANOMALY":187.7165,"EPHEMERIS_TYPE":0,"NORAD_CAT_ID":68871,"ELEMENT_SET_NO":999,"REV_AT_EPOCH":1232,"BSTAR":0.00014970003,"MEAN_MOTION_DOT":0.00000836,"MEAN_MOTION_DDOT":0},{"OBJECT_NAME":"KUIPER-00459","OBJECT_ID":"2026-095J","EPOCH":"2026-07-18T06:00:02.000160","CLASSIFICATION_TYPE":"U","MEAN_MOTION":15.06036446,"ECCENTRICITY":0.00111982,"INCLINATION":51.8867,"RA_OF_ASC_NODE":94.578,"ARG_OF_PERICENTER":53.9905,"MEAN_ANOMALY":272.7081,"EPHEMERIS_TYPE":0,"NORAD_CAT_ID":68872,"ELEMENT_SET_NO":999,"REV_AT_EPOCH":381,"BSTAR":-0.004674119,"MEAN_MOTION_DOT":-0.00068717,"MEAN_MOTION_DDOT":0},{"OBJECT_NAME":"KUIPER-00468","OBJECT_ID":"2026-095K","EPOCH":"2026-07-18T06:00:02.000160","CLASSIFICATION_TYPE":"U","MEAN_MOTION":15.13298628,"ECCENTRICITY":0.00048497,"INCLINATION":51.8886,"RA_OF_ASC_NODE":93.1807,"ARG_OF_PERICENTER":24.6814,"MEAN_ANOMALY":32.3215,"EPHEMERIS_TYPE":0,"NORAD_CAT_ID":68873,"ELEMENT_SET_NO":999,"REV_AT_EPOCH":308,"BSTAR":0.00027632596,"MEAN_MOTION_DOT":0.00004681,"MEAN_MOTION_DDOT":0},{"OBJECT_NAME":"KUIPER-00476","OBJECT_ID":"2026-095L","EPOCH":"2026-07-17T20:52:36.282432","CLASSIFICATION_TYPE":"U","MEAN_MOTION":15.33192315,"ECCENTRICITY":0.00099131,"INCLINATION":51.8722,"RA_OF_ASC_NODE":95.1427,"ARG_OF_PERICENTER":56.7183,"MEAN_ANOMALY":303.475,"EPHEMERIS_TYPE":0,"NORAD_CAT_ID":68874,"ELEMENT_SET_NO":999,"REV_AT_EPOCH":1243,"BSTAR":-0.00095731825,"MEAN_MOTION_DOT":-0.0003146,"MEAN_MOTION_DDOT":0},{"OBJECT_NAME":"KUIPER-00478","OBJECT_ID":"2026-095M","EPOCH":"2026-07-18T06:00:02.000160","CLASSIFICATION_TYPE":"U","MEAN_MOTION":14.89440785,"ECCENTRICITY":0.00060973,"INCLINATION":51.8945,"RA_OF_ASC_NODE":95.8564,"ARG_OF_PERICENTER":85.8245,"MEAN_ANOMALY":71.9462,"EPHEMERIS_TYPE":0,"NORAD_CAT_ID":68875,"ELEMENT_SET_NO":999,"REV_AT_EPOCH":527,"BSTAR":-0.0035400611,"MEAN_MOTION_DOT":-0.00034094,"MEAN_MOTION_DDOT":0},{"OBJECT_NAME":"KUIPER-00480","OBJECT_ID":"2026-095N","EPOCH":"2026-07-18T06:00:02.000160","CLASSIFICATION_TYPE":"U","MEAN_MOTION":15.05830845,"ECCENTRICITY":0.0005292,"INCLINATION":51.8872,"RA_OF_ASC_NODE":93.9053,"ARG_OF_PERICENTER":33.8433,"MEAN_ANOMALY":1.0547,"EPHEMERIS_TYPE":0,"NORAD_CAT_ID":68876,"ELEMENT_SET_NO":999,"REV_AT_EPOCH":320,"BSTAR":-0.081344752,"MEAN_MOTION_DOT":-0.01102824,"MEAN_MOTION_DDOT":0},{"OBJECT_NAME":"KUIPER-00482","OBJECT_ID":"2026-095P","EPOCH":"2026-07-18T03:44:00.079872","CLASSIFICATION_TYPE":"U","MEAN_MOTION":14.76419448,"ECCENTRICITY":0.00007377,"INCLINATION":51.9021,"RA_OF_ASC_NODE":103.5411,"ARG_OF_PERICENTER":249.3487,"MEAN_ANOMALY":110.7395,"EPHEMERIS_TYPE":0,"NORAD_CAT_ID":68877,"ELEMENT_SET_NO":999,"REV_AT_EPOCH":1234,"BSTAR":0.00015662737,"MEAN_MOTION_DOT":0.00000885,"MEAN_MOTION_DDOT":0},{"OBJECT_NAME":"KUIPER-00483","OBJECT_ID":"2026-095Q","EPOCH":"2026-07-18T03:27:43.205184","CLASSIFICATION_TYPE":"U","MEAN_MOTION":14.76520528,"ECCENTRICITY":0.00012539,"INCLINATION":51.8986,"RA_OF_ASC_NODE":116.0907,"ARG_OF_PERICENTER":259.5206,"MEAN_ANOMALY":100.5614,"EPHEMERIS_TYPE":0,"NORAD_CAT_ID":68878,"ELEMENT_SET_NO":999,"REV_AT_EPOCH":1216,"BSTAR":0.00017137788,"MEAN_MOTION_DOT":0.00000991,"MEAN_MOTION_DDOT":0},{"OBJECT_NAME":"KUIPER-00488","OBJECT_ID":"2026-095R","EPOCH":"2026-07-18T06:00:02.000160","CLASSIFICATION_TYPE":"U","MEAN_MOTION":14.81833239,"ECCENTRICITY":0.00033217,"INCLINATION":51.8988,"RA_OF_ASC_NODE":98.3281,"ARG_OF_PERICENTER":115.1346,"MEAN_ANOMALY":82.0445,"EPHEMERIS_TYPE":0,"NORAD_CAT_ID":68879,"ELEMENT_SET_NO":999,"REV_AT_EPOCH":568,"BSTAR":-0.0059764277,"MEAN_MOTION_DOT":-0.00047574,"MEAN_MOTION_DDOT":0},{"OBJECT_NAME":"KUIPER-00489","OBJECT_ID":"2026-095S","EPOCH":"2026-07-18T06:00:02.000160","CLASSIFICATION_TYPE":"U","MEAN_MOTION":15.25761875,"ECCENTRICITY":0.00130072,"INCLINATION":51.8772,"RA_OF_ASC_NODE":93.6051,"ARG_OF_PERICENTER":54.4092,"MEAN_ANOMALY":110.7704,"EPHEMERIS_TYPE":0,"NORAD_CAT_ID":68880,"ELEMENT_SET_NO":999,"REV_AT_EPOCH":449,"BSTAR":-0.09872548,"MEAN_MOTION_DOT":-0.02286264,"MEAN_MOTION_DDOT":0},{"OBJECT_NAME":"KUIPER-00499","OBJECT_ID":"2026-095T","EPOCH":"2026-07-18T06:00:02.000160","CLASSIFICATION_TYPE":"U","MEAN_MOTION":14.95760347,"ECCENTRICITY":0.00074774,"INCLINATION":51.8938,"RA_OF_ASC_NODE":96.4141,"ARG_OF_PERICENTER":66.0723,"MEAN_ANOMALY":47.2556,"EPHEMERIS_TYPE":0,"NORAD_CAT_ID":68881,"ELEMENT_SET_NO":999,"REV_AT_EPOCH":335,"BSTAR":-0.0022033073,"MEAN_MOTION_DOT":-0.00025007,"MEAN_MOTION_DDOT":0}]}
