KUIPER-00357            
1 68866U 26095C   26198.93334586  .00001612  00000+0  24033-3 0  9997
2 68866  51.9019 107.2009 0001213  89.3141 270.7961 14.79938509 12272
KUIPER-00364            
1 68867U 26095D   26199.16703824  .00001673  00000+0  24852-3 0  9995
2 68867  51.9046 108.6768 0001197 159.5264 200.5747 14.79921303 12274
KUIPER-00375            
1 68868U 26095E   26199.25002315  .00015264  00000+0  22023-2 0  9991
2 68868  51.9002 100.2228 0003310 102.6352  56.4390 14.76392797  5698
KUIPER-00433            
1 68869U 26095F   26199.05788038  .00001667  00000+0  24747-3 0  9991
2 68869  51.9009 116.6488 0001179  88.0505 272.0592 14.79968474 12156
KUIPER-00437            
1 68870U 26095G   26199.08100688  .00009078  00000+0  24427-3 0  9994
2 68870  51.8792  92.8800 0008073  60.5020 299.6772 15.38597102 12489
KUIPER-00448            
1 68871U 26095H   26199.14513046  .00000836  00000+0  14970-3 0  9993
2 68871  51.9042 104.6055 0001381 172.3817 187.7165 14.76432050 12321
KUIPER-00459            
1 68872U 26095J   26199.25002315 -.00068717  00000+0 -46741-2 0  9992
2 68872  51.8867  94.5780 0011198  53.9905 272.7081 15.06036446  3816
KUIPER-00468            
1 68873U 26095K   26199.25002315  .00004681  00000+0  27633-3 0  9991
2 68873  51.8886  93.1807 0004849  24.6814  32.3215 15.13298628  3080
KUIPER-00476            
1 68874U 26095L   26198.86986438 -.00031460  00000+0 -95732-3 0  9997
2 68874  51.8722  95.1427 0009913  56.7183 303.4750 15.33192315 12435
KUIPER-00478            
1 68875U 26095M   26199.25002315 -.00034094  00000+0 -35401-2 0  9997
2 68875  51.8945  95.8564 0006097  85.8245  71.9462 14.89440785  5272
KUIPER-00480            
1 68876U 26095N   26199.25002315 -.01102824  00000+0 -81345-1 0  9993
2 68876  51.8872  93.9053 0005292  33.8433   1.0547 15.05830845  3200
KUIPER-00482            
1 68877U 26095P   26199.15555648  .00000885  00000+0  15663-3 0  9998
2 68877  51.9021 103.5411 0000737 249.3487 110.7395 14.76419448 12349
KUIPER-00483            
1 68878U 26095Q   26199.14425006  .00000991  00000+0  17138-3 0  9999
2 68878  51.8986 116.0907 0001253 259.5206 100.5614 14.76520528 12167
KUIPER-00488            
1 68879U 26095R   26199.25002315 -.00047574  00000+0 -59764-2 0  9996
2 68879  51.8988  98.3281 0003321 115.1346  82.0445 14.81833239  5684
KUIPER-00489            
1 68880U 26095S   26199.25002315 -.02286264  00000+0 -98725-1 0  9990
2 68880  51.8772  93.6051 0013007  54.4092 110.7704 15.25761875  4495
KUIPER-00499            
1 68881U 26095T   26199.25002315 -.00025007  00000+0 -22033-2 0  9995
2 68881  51.8938  96.4141 0007477  66.0723  47.2556 14.95760347  3357
